{
    "links": {
        "self": "http://www.neowsapp.com/rest/v1/neo/3872645?api_key=iIulBulltgU6a56xZRHN4H3l9WmuAYTsLGpBGhQ2"
    },
    "id": "3872645",
    "neo_reference_id": "3872645",
    "name": "(2019 SR8)",
    "designation": "2019 SR8",
    "nasa_jpl_url": "http://ssd.jpl.nasa.gov/sbdb.cgi?sstr=3872645",
    "absolute_magnitude_h": 25.5,
    "estimated_diameter": {
        "kilometers": {
            "estimated_diameter_min": 0.0211132445,
            "estimated_diameter_max": 0.0472106499
        },
        "meters": {
            "estimated_diameter_min": 21.113244479,
            "estimated_diameter_max": 47.2106498806
        },
        "miles": {
            "estimated_diameter_min": 0.0131191578,
            "estimated_diameter_max": 0.0293353287
        },
        "feet": {
            "estimated_diameter_min": 69.2691770164,
            "estimated_diameter_max": 154.8905885541
        }
    },
    "is_potentially_hazardous_asteroid": false,
    "close_approach_data": [
        {
            "close_approach_date": "1926-10-07",
            "close_approach_date_full": "1926-Oct-07 22:16",
            "epoch_date_close_approach": -1364348640000,
            "relative_velocity": {
                "kilometers_per_second": "11.183004915",
                "kilometers_per_hour": "40258.817694099",
                "miles_per_hour": "25015.263694425"
            },
            "miss_distance": {
                "astronomical": "0.027385439",
                "lunar": "10.652935771",
                "kilometers": "4096803.34341493",
                "miles": "2545635.554908834"
            },
            "orbiting_body": "Earth"
        },
        {
            "close_approach_date": "2019-10-16",
            "close_approach_date_full": "2019-Oct-16 03:45",
            "epoch_date_close_approach": 1571197500000,
            "relative_velocity": {
                "kilometers_per_second": "9.8233949527",
                "kilometers_per_hour": "35364.2218296369",
                "miles_per_hour": "21973.952169643"
            },
            "miss_distance": {
                "astronomical": "0.0346666459",
                "lunar": "13.4853252551",
                "kilometers": "5186056.386684233",
                "miles": "3222466.0109510954"
            },
            "orbiting_body": "Earth"
        }
    ],
    "orbital_data": {
        "orbit_id": "1",
        "orbit_determination_date": "2019-10-01 05:12:03",
        "first_observation_date": "2019-09-26",
        "last_observation_date": "2019-10-01",
        "data_arc_in_days": 5,
        "observations_used": 12,
        "orbit_uncertainty": "8",
        "minimum_orbit_intersection": ".0130259",
        "jupiter_tisserand_invariant": "3.926",
        "epoch_osculation": "2458754.5",
        "eccentricity": ".5092333272364209",
        "semi_major_axis": "1.782984816578596",
        "inclination": "1.149729923332214",
        "ascending_node_longitude": "74.54878536817806",
        "orbital_period": "869.6007269955221",
        "perihelion_distance": ".8750295260202577",
        "perihelion_argument": "353.1389917336062",
        "aphelion_distance": "2.690940107136933",
        "perihelion_time": "2458806.974411618035",
        "mean_anomaly": "338.2764806927423",
        "mean_motion": ".4139830945677829",
        "equinox": "J2000",
        "orbit_class": {
            "orbit_class_type": "APO",
            "orbit_class_description": "Near-Earth asteroid orbits which cross the Earth’s orbit similar to that of 1862 Apollo",
            "orbit_class_range": "a (semi-major axis) > 1.0 AU; q (perihelion) < 1.017 AU"
        }
    },
    "is_sentry_object": false
}